0 GLOBALSTAR M077
1 37191U 10054D   24171.14879291 -.00000107  00000-0 -18672-4 0  9995
2 37191  52.0061 121.1998 0000481  26.8216 353.4789 12.62273918632030
0 GLOBALSTAR M076
1 37190U 10054C   24170.71989037 -.00000090  00000-0  74937-4 0  9992
2 37190  52.0001 165.7541 0000408 295.1886 235.6186 12.62262328630879
0 GLOBALSTAR M074
1 37189U 10054B   24170.69384331 -.00000088  00000-0  85478-4 0  9992
2 37189  51.9987 165.6971 0000139  21.4935 149.6790 12.62269806631155
0 GLOBALSTAR M079
1 37188U 10054A   24171.53426455 -.00000087  00000-0  91586-4 0  9995
2 37188  52.0012 163.7585 0000149 245.0670 267.8731 12.62271146631334
0 GLOBALSTAR M068
1 32266U 07048D   24171.19342685 -.00000073  00000-0  17209-3 0  9994
2 32266  51.9904 328.7546 0001622  81.9246  89.1156 12.62791788771988
0 GLOBALSTAR M066
1 32265U 07048C   24171.07362899 -.00000073  00000-0  17353-3 0  9999
2 32265  51.9695  16.6420 0000980  95.5068  73.7785 12.62263993771010
0 GLOBALSTAR M070
1 32264U 07048B   24171.23614626 -.00000086  00000-0  97877-4 0  9998
2 32264  51.9725 154.1776 0000517  22.2621 350.6259 12.62294547768819
0 GLOBALSTAR M067
1 32263U 07048A   24170.75280050 -.00000063  00000-0  25165-3 0  9998
2 32263  51.9747  19.3505 0000420   4.4998  74.5618 12.40647833764370
